{
  "norad_id": 57248,
  "name": "STARLINK-5514",
  "history": [
    {
      "epoch": "2026-03-28T22:00:01.999584Z",
      "apogee_km": 488.1295802820214,
      "perigee_km": 485.33750013590816,
      "latitude_deg": 25.091411098164244,
      "longitude_deg": 144.56406892266952,
      "height_km": 487.23801651724887,
      "semi_major_axis_km": 6864.8705402089645,
      "eccentricity": 0.00020336,
      "inclination_deg": 42.9995,
      "raan_deg": 270.9441,
      "arg_perigee_deg": 281.3259,
      "mean_anomaly_deg": 116.9498,
      "mean_motion_rev_day": 15.26350364
    },
    {
      "epoch": "2026-03-29T04:00:01.999584Z",
      "apogee_km": 487.4823832212105,
      "perigee_km": 484.6913897889581,
      "latitude_deg": -17.841028398682,
      "longitude_deg": 2.8741913168138877,
      "height_km": 489.29998319358884,
      "semi_major_axis_km": 6864.223886505084,
      "eccentricity": 0.0002033,
      "inclination_deg": 43.0,
      "raan_deg": 269.5337,
      "arg_perigee_deg": 266.1308,
      "mean_anomaly_deg": 67.3834,
      "mean_motion_rev_day": 15.26566057
    },
    {
      "epoch": "2026-03-30T04:00:01.999584Z",
      "apogee_km": 486.87926293927467,
      "perigee_km": 484.19597798315135,
      "latitude_deg": 41.566105631504215,
      "longitude_deg": 87.3566300212334,
      "height_km": 489.57336606607015,
      "semi_major_axis_km": 6863.674620461213,
      "eccentricity": 0.00019547,
      "inclination_deg": 43.0,
      "raan_deg": 263.8937,
      "arg_perigee_deg": 279.2033,
      "mean_anomaly_deg": 156.6939,
      "mean_motion_rev_day": 15.26749306
    },
    {
      "epoch": "2026-03-30T14:00:03.000384Z",
      "apogee_km": 486.73281332735496,
      "perigee_km": 484.3759589791789,
      "latitude_deg": -19.289694859185882,
      "longitude_deg": 65.47574955251696,
      "height_km": 489.293837511358,
      "semi_major_axis_km": 6863.691386153267,
      "eccentricity": 0.00017169,
      "inclination_deg": 43.0,
      "raan_deg": 261.5451,
      "arg_perigee_deg": 275.5317,
      "mean_anomaly_deg": 293.2169,
      "mean_motion_rev_day": 15.26743712
    },
    {
      "epoch": "2026-03-30T22:00:00.999936Z",
      "apogee_km": 486.9799413561241,
      "perigee_km": 484.29798953538557,
      "latitude_deg": -37.536714048260414,
      "longitude_deg": -23.615448291475037,
      "height_km": 495.68125625435925,
      "semi_major_axis_km": 6863.775965445755,
      "eccentricity": 0.00019537,
      "inclination_deg": 43.0005,
      "raan_deg": 259.6664,
      "arg_perigee_deg": 285.194,
      "mean_anomaly_deg": 317.676,
      "mean_motion_rev_day": 15.26715492
    },
    {
      "epoch": "2026-03-31T20:00:01.999008Z",
      "apogee_km": 486.9998466302759,
      "perigee_km": 484.29277049337907,
      "latitude_deg": -39.08717475084186,
      "longitude_deg": 5.310004261099765,
      "height_km": 496.2472387675778,
      "semi_major_axis_km": 6863.783308561828,
      "eccentricity": 0.0001972,
      "inclination_deg": 43.0008,
      "raan_deg": 254.4961,
      "arg_perigee_deg": 284.8943,
      "mean_anomaly_deg": 322.2086,
      "mean_motion_rev_day": 15.26713042
    },
    {
      "epoch": "2026-04-01T16:54:17.815104Z",
      "apogee_km": 486.7933897393277,
      "perigee_km": 484.30598968297636,
      "latitude_deg": -7.656664244012388e-06,
      "longitude_deg": 165.94218872836734,
      "height_km": 485.04265899211674,
      "semi_major_axis_km": 6863.686689711151,
      "eccentricity": 0.0001812,
      "inclination_deg": 43.0014,
      "raan_deg": 249.58,
      "arg_perigee_deg": 283.2144,
      "mean_anomaly_deg": 76.8505,
      "mean_motion_rev_day": 15.26745279
    },
    {
      "epoch": "2026-04-02T16:27:24.794496Z",
      "apogee_km": 486.3814927538988,
      "perigee_km": 484.710597753362,
      "latitude_deg": 1.3157999941862532e-05,
      "longitude_deg": 166.15948721536589,
      "height_km": 485.3125436208279,
      "semi_major_axis_km": 6863.68304525363,
      "eccentricity": 0.00012172,
      "inclination_deg": 42.9997,
      "raan_deg": 244.0436,
      "arg_perigee_deg": 270.6926,
      "mean_anomaly_deg": 89.3786,
      "mean_motion_rev_day": 15.26746495
    },
    {
      "epoch": "2026-04-04T15:33:39.314880Z",
      "apogee_km": 486.6474393114613,
      "perigee_km": 484.45792230328334,
      "latitude_deg": 1.3305190251232264e-05,
      "longitude_deg": 166.5946913851993,
      "height_km": 485.38763143274764,
      "semi_major_axis_km": 6863.689680807372,
      "eccentricity": 0.0001595,
      "inclination_deg": 43.0018,
      "raan_deg": 232.9738,
      "arg_perigee_deg": 266.9726,
      "mean_anomaly_deg": 93.0943,
      "mean_motion_rev_day": 15.26744281
    },
    {
      "epoch": "2026-04-05T15:06:27.866880Z",
      "apogee_km": 486.6875904607232,
      "perigee_km": 483.0927368324046,
      "latitude_deg": 3.6236484058184896e-05,
      "longitude_deg": 166.88738084320727,
      "height_km": 484.73329692449886,
      "semi_major_axis_km": 6863.027163646564,
      "eccentricity": 0.0002619,
      "inclination_deg": 43.0006,
      "raan_deg": 227.4358,
      "arg_perigee_deg": 267.9145,
      "mean_anomaly_deg": 92.1407,
      "mean_motion_rev_day": 15.26965361
    },
    {
      "epoch": "2026-04-07T14:11:25.810944Z",
      "apogee_km": 484.66754037350347,
      "perigee_km": 482.56235487597223,
      "latitude_deg": -1.4699893102376722e-05,
      "longitude_deg": 167.63876770906325,
      "height_km": 483.0688128049227,
      "semi_major_axis_km": 6861.751947624737,
      "eccentricity": 0.0001534,
      "inclination_deg": 43.0026,
      "raan_deg": 216.3623,
      "arg_perigee_deg": 287.884,
      "mean_anomaly_deg": 72.1844,
      "mean_motion_rev_day": 15.27391047
    },
    {
      "epoch": "2026-04-08T14:00:04.999680Z",
      "apogee_km": 484.1514098862417,
      "perigee_km": 481.9445783447336,
      "latitude_deg": 37.421872608147254,
      "longitude_deg": -141.41720296360688,
      "height_km": 485.8421904463011,
      "semi_major_axis_km": 6861.184994115487,
      "eccentricity": 0.00016082,
      "inclination_deg": 43.0007,
      "raan_deg": 210.7627,
      "arg_perigee_deg": 281.3326,
      "mean_anomaly_deg": 141.2956,
      "mean_motion_rev_day": 15.27580368
    },
    {
      "epoch": "2026-04-09T08:33:35.658144Z",
      "apogee_km": 484.1179736016202,
      "perigee_km": 481.98949501202424,
      "latitude_deg": 1.9434370028167416e-05,
      "longitude_deg": -119.61278072622683,
      "height_km": 482.67781153930275,
      "semi_major_axis_km": 6861.190734306822,
      "eccentricity": 0.00015511,
      "inclination_deg": 43.0029,
      "raan_deg": 206.3918,
      "arg_perigee_deg": 278.27,
      "mean_anomaly_deg": 81.7976,
      "mean_motion_rev_day": 15.27578451
    },
    {
      "epoch": "2026-04-10T06:31:47.061408Z",
      "apogee_km": 484.15788644444365,
      "perigee_km": 481.94734837350734,
      "latitude_deg": 8.93996621390647e-06,
      "longitude_deg": -95.23187706862741,
      "height_km": 482.67355962473346,
      "semi_major_axis_km": 6861.189617408975,
      "eccentricity": 0.00016109,
      "inclination_deg": 43.0029,
      "raan_deg": 201.2225,
      "arg_perigee_deg": 278.1277,
      "mean_anomaly_deg": 81.9392,
      "mean_motion_rev_day": 15.27578824
    },
    {
      "epoch": "2026-04-11T07:38:17.378880Z",
      "apogee_km": 484.18137807467247,
      "perigee_km": 481.94188284169104,
      "latitude_deg": -7.657592312913914e-06,
      "longitude_deg": -118.79718602976908,
      "height_km": 482.6973464172802,
      "semi_major_axis_km": 6861.1986304581815,
      "eccentricity": 0.0001632,
      "inclination_deg": 43.0036,
      "raan_deg": 195.3147,
      "arg_perigee_deg": 277.2642,
      "mean_anomaly_deg": 82.8024,
      "mean_motion_rev_day": 15.27575814
    },
    {
      "epoch": "2026-04-13T05:08:49.639488Z",
      "apogee_km": 484.1265469707296,
      "perigee_km": 481.99916334364116,
      "latitude_deg": -5.1937358930925584e-05,
      "longitude_deg": -94.00974051987549,
      "height_km": 482.73996146536916,
      "semi_major_axis_km": 6861.199855157185,
      "eccentricity": 0.00015503,
      "inclination_deg": 43.0029,
      "raan_deg": 184.6056,
      "arg_perigee_deg": 275.3975,
      "mean_anomaly_deg": 84.6699,
      "mean_motion_rev_day": 15.27575405
    },
    {
      "epoch": "2026-04-14T06:15:19.885248Z",
      "apogee_km": 484.14168734144823,
      "perigee_km": 481.9845260279062,
      "latitude_deg": -3.9187470749848603e-05,
      "longitude_deg": -117.57601548107213,
      "height_km": 482.80843959529585,
      "semi_major_axis_km": 6861.200106684677,
      "eccentricity": 0.0001572,
      "inclination_deg": 43.0027,
      "raan_deg": 178.6965,
      "arg_perigee_deg": 271.6905,
      "mean_anomaly_deg": 88.3766,
      "mean_motion_rev_day": 15.27575321
    },
    {
      "epoch": "2026-04-14T21:56:53.454048Z",
      "apogee_km": 484.097690085624,
      "perigee_km": 482.00914372271836,
      "latitude_deg": -1.8708087501192365e-05,
      "longitude_deg": 2.696562779621384,
      "height_km": 482.80654718180597,
      "semi_major_axis_km": 6861.190416904171,
      "eccentricity": 0.0001522,
      "inclination_deg": 43.0028,
      "raan_deg": 175.0034,
      "arg_perigee_deg": 271.3163,
      "mean_anomaly_deg": 88.7514,
      "mean_motion_rev_day": 15.27578557
    },
    {
      "epoch": "2026-04-16T11:36:38.898720Z",
      "apogee_km": 483.9661235731155,
      "perigee_km": 482.13830276672616,
      "latitude_deg": 1.8485958583714755e-05,
      "longitude_deg": 147.34710370039673,
      "height_km": 483.0288915274802,
      "semi_major_axis_km": 6861.189213169921,
      "eccentricity": 0.0001332,
      "inclination_deg": 43.0025,
      "raan_deg": 166.14,
      "arg_perigee_deg": 257.3712,
      "mean_anomaly_deg": 102.6991,
      "mean_motion_rev_day": 15.27578959
    }
  ]
}